{"type": "FeatureCollection", "features": [ {"type": "Feature", "properties": {"norad_id": 49810, "name": "GSAT0224 (GALILEO 28)", "group": "gnss", "lat": 7.723054819060839, "lon": 161.77994472731297, "alt_km": 23220.005990944297, "timestamp": "2025-12-09T14:52:26.405803+00:00", "meta": {"OBJECT_NAME": "GSAT0224 (GALILEO 28)", "OBJECT_ID": "2021-116B", "EPOCH": "2025-12-07T13:56:35.698272", "MEAN_MOTION": 1.7047563, "ECCENTRICITY": 0.00040182, "INCLINATION": 57.2213, "RA_OF_ASC_NODE": 346.8506, "ARG_OF_PERICENTER": 254.5241, "MEAN_ANOMALY": 105.0474, "EPHEMERIS_TYPE": 0, "CLASSIFICATION_TYPE": "U", "NORAD_CAT_ID": 49810, "ELEMENT_SET_NO": 999, "REV_AT_EPOCH": 2493, "BSTAR": 0, "MEAN_MOTION_DOT": -8.4e-07, "MEAN_MOTION_DDOT": 0}, "tle": {"line1": "1 49810U 21116B   25341.58096873 -.00000084  00000+0  00000+0 0  9995", "line2": "2 49810  57.2213 346.8506 0004018 254.5241 105.0474  1.70475630 24934"}}, "geometry": {"type": "Point", "coordinates": [161.77994472731297, 7.723054819060839]}}, {"type": "Feature", "properties": {"norad_id": 52984, "name": "COSMOS 2557 (706K)", "group": "gnss", "lat": 58.31371832568286, "lon": 12.05288090378623, "alt_km": 19154.84724685538, "timestamp": "2025-12-09T14:52:26.405814+00:00", "meta": {"OBJECT_NAME": "COSMOS 2557 (706K)", "OBJECT_ID": "2022-075A", "EPOCH": "2025-12-07T04:21:00.419904", "MEAN_MOTION": 2.13101754, "ECCENTRICITY": 0.00137049, "INCLINATION": 64.4129, "RA_OF_ASC_NODE": 321.247, "ARG_OF_PERICENTER": 276.9, "MEAN_ANOMALY": 82.939, "EPHEMERIS_TYPE": 0, "CLASSIFICATION_TYPE": "U", "NORAD_CAT_ID": 52984, "ELEMENT_SET_NO": 999, "REV_AT_EPOCH": 2662, "BSTAR": 0, "MEAN_MOTION_DOT": -5.2e-07, "MEAN_MOTION_DDOT": 0}, "tle": {"line1": "1 52984U 22075A   25341.18125486 -.00000052  00000+0  00000+0 0  9990", "line2": "2 52984  64.4129 321.2470 0013704 276.9000  82.9390  2.13101754 26625"}}, "geometry": {"type": "Point", "coordinates": [12.05288090378623, 58.31371832568286]}}, {"type": "Feature", "properties": {"norad_id": 54031, "name": "COSMOS 2559 (707K)", "group": "gnss", "lat": -26.373488158529266, "lon": 154.99751146914562, "alt_km": 19104.627885252245, "timestamp": "2025-12-09T14:52:26.405826+00:00", "meta": {"OBJECT_NAME": "COSMOS 2559 (707K)", "OBJECT_ID": "2022-130A", "EPOCH": "2025-12-08T21:03:33.189408", "MEAN_MOTION": 2.13101268, "ECCENTRICITY": 0.0011908, "INCLINATION": 64.3845, "RA_OF_ASC_NODE": 321.277, "ARG_OF_PERICENTER": 192.5862, "MEAN_ANOMALY": 167.3811, "EPHEMERIS_TYPE": 0, "CLASSIFICATION_TYPE": "U", "NORAD_CAT_ID": 54031, "ELEMENT_SET_NO": 999, "REV_AT_EPOCH": 2463, "BSTAR": 0, "MEAN_MOTION_DOT": -5.1e-07, "MEAN_MOTION_DDOT": 0}, "tle": {"line1": "1 54031U 22130A   25342.87746747 -.00000051  00000+0  00000+0 0  9992", "line2": "2 54031  64.3845 321.2770 0011908 192.5862 167.3811  2.13101268 24635"}}, "geometry": {"type": "Point", "coordinates": [154.99751146914562, -26.373488158529266]}}, {"type": "Feature", "properties": {"norad_id": 54377, "name": "COSMOS 2564 (761)", "group": "gnss", "lat": -27.757417676695233, "lon": -175.38379989400218, "alt_km": 19145.884136829485, "timestamp": "2025-12-09T14:52:26.405837+00:00", "meta": {"OBJECT_NAME": "COSMOS 2564 (761)", "OBJECT_ID": "2022-161A", "EPOCH": "2025-12-06T20:16:19.958016", "MEAN_MOTION": 2.13101987, "ECCENTRICITY": 0.0008674, "INCLINATION": 64.7378, "RA_OF_ASC_NODE": 199.0949, "ARG_OF_PERICENTER": 205.6872, "MEAN_ANOMALY": 154.3558, "EPHEMERIS_TYPE": 0, "CLASSIFICATION_TYPE": "U", "NORAD_CAT_ID": 54377, "ELEMENT_SET_NO": 999, "REV_AT_EPOCH": 2353, "BSTAR": 0, "MEAN_MOTION_DOT": 6.7e-07, "MEAN_MOTION_DDOT": 0}, "tle": {"line1": "1 54377U 22161A   25340.84467544  .00000067  00000+0  00000+0 0  9995", "line2": "2 54377  64.7378 199.0949 0008674 205.6872 154.3558  2.13101987 23535"}}, "geometry": {"type": "Point", "coordinates": [-175.38379989400218, -27.757417676695233]}}, {"type": "Feature", "properties": {"norad_id": 55268, "name": "GPS BIII-6  (PRN 28)", "group": "gnss", "lat": 55.07583943847181, "lon": -113.0896269694166, "alt_km": 20177.112979118378, "timestamp": "2025-12-09T14:52:26.405848+00:00", "meta": {"OBJECT_NAME": "GPS BIII-6  (PRN 28)", "OBJECT_ID": "2023-009A", "EPOCH": "2025-12-08T05:52:26.989248", "MEAN_MOTION": 2.00555991, "ECCENTRICITY": 0.0003615, "INCLINATION": 55.1046, "RA_OF_ASC_NODE": 156.0217, "ARG_OF_PERICENTER": 356.7859, "MEAN_ANOMALY": 180.9144, "EPHEMERIS_TYPE": 0, "CLASSIFICATION_TYPE": "U", "NORAD_CAT_ID": 55268, "ELEMENT_SET_NO": 999, "REV_AT_EPOCH": 2141, "BSTAR": 0, "MEAN_MOTION_DOT": 5.9e-07, "MEAN_MOTION_DDOT": 0}, "tle": {"line1": "1 55268U 23009A   25342.24475682  .00000059  00000+0  00000+0 0  9996", "line2": "2 55268  55.1046 156.0217 0003615 356.7859 180.9144  2.00555991 21410"}}, "geometry": {"type": "Point", "coordinates": [-113.0896269694166, 55.07583943847181]}}, {"type": "Feature", "properties": {"norad_id": 56564, "name": "BEIDOU-3 G4 (C62)", "group": "gnss", "lat": 0.2985531998040277, "lon": 101.74830713298964, "alt_km": 35783.05299386243, "timestamp": "2025-12-09T14:52:26.405865+00:00", "meta": {"OBJECT_NAME": "BEIDOU-3 G4 (C62)", "OBJECT_ID": "2023-066A", "EPOCH": "2025-12-09T07:53:55.999968", "MEAN_MOTION": 1.00271229, "ECCENTRICITY": 0.000302, "INCLINATION": 0.8222, "RA_OF_ASC_NODE": 301.7953, "ARG_OF_PERICENTER": 235.4956, "MEAN_ANOMALY": 179.5811, "EPHEMERIS_TYPE": 0, "CLASSIFICATION_TYPE": "U", "NORAD_CAT_ID": 56564, "ELEMENT_SET_NO": 999, "REV_AT_EPOCH": 949, "BSTAR": 0, "MEAN_MOTION_DOT": -1.09e-06, "MEAN_MOTION_DDOT": 0}, "tle": {"line1": "1 56564U 23066A   25343.32912037 -.00000109  00000+0  00000+0 0  9996", "line2": "2 56564   0.8222 301.7953 0003020 235.4956 179.5811  1.00271229  9497"}}, "geometry": {"type": "Point", "coordinates": [101.74830713298964, 0.2985531998040277]}}, {"type": "Feature", "properties": {"norad_id": 56759, "name": "NVS-01 (IRNSS-1J)", "group": "gnss", "lat": 0.04719031918879444, "lon": 71.15561402121264, "alt_km": 35824.341159546864, "timestamp": "2025-12-09T14:52:26.405877+00:00", "meta": {"OBJECT_NAME": "NVS-01 (IRNSS-1J)", "OBJECT_ID": "2023-076A", "EPOCH": "2025-12-09T01:44:38.707008", "MEAN_MOTION": 1.00264904, "ECCENTRICITY": 0.00086662, "INCLINATION": 2.627, "RA_OF_ASC_NODE": 251.7336, "ARG_OF_PERICENTER": 8.3291, "MEAN_ANOMALY": 333.6082, "EPHEMERIS_TYPE": 0, "CLASSIFICATION_TYPE": "U", "NORAD_CAT_ID": 56759, "ELEMENT_SET_NO": 999, "REV_AT_EPOCH": 920, "BSTAR": 0, "MEAN_MOTION_DOT": -3.34e-06, "MEAN_MOTION_DDOT": 0}, "tle": {"line1": "1 56759U 23076A   25343.07267022 -.00000334  00000+0  00000+0 0  9992", "line2": "2 56759   2.6270 251.7336 0008666   8.3291 333.6082  1.00264904  9209"}}, "geometry": {"type": "Point", "coordinates": [71.15561402121264, 0.04719031918879444]}}, {"type": "Feature", "properties": {"norad_id": 57517, "name": "COSMOS 2569 (703K)", "group": "gnss", "lat": -36.87123466661932, "lon": 58.759577755661084, "alt_km": 19111.922482931044, "timestamp": "2025-12-09T14:52:26.405889+00:00", "meta": {"OBJECT_NAME": "COSMOS 2569 (703K)", "OBJECT_ID": "2023-114A", "EPOCH": "2025-12-09T04:54:16.689312", "MEAN_MOTION": 2.13103889, "ECCENTRICITY": 0.00103937, "INCLINATION": 65.1923, "RA_OF_ASC_NODE": 79.033, "ARG_OF_PERICENTER": 287.0321, "MEAN_ANOMALY": 72.8717, "EPHEMERIS_TYPE": 0, "CLASSIFICATION_TYPE": "U", "NORAD_CAT_ID": 57517, "ELEMENT_SET_NO": 999, "REV_AT_EPOCH": 1821, "BSTAR": 0, "MEAN_MOTION_DOT": -1.4e-07, "MEAN_MOTION_DDOT": 0}, "tle": {"line1": "1 57517U 23114A   25343.20435983 -.00000014  00000+0  00000+0 0  9991", "line2": "2 57517  65.1923  79.0330 0010393 287.0321  72.8717  2.13103889 18213"}}, "geometry": {"type": "Point", "coordinates": [58.759577755661084, -36.87123466661932]}}, {"type": "Feature", "properties": {"norad_id": 58654, "name": "BEIDOU-3 M28 (C50)", "group": "gnss", "lat": -55.59845116196399, "lon": -20.420486962192744, "alt_km": 21527.73223089422, "timestamp": "2025-12-09T14:52:26.405900+00:00", "meta": {"OBJECT_NAME": "BEIDOU-3 M28 (C50)", "OBJECT_ID": "2023-207A", "EPOCH": "2025-12-09T05:11:28.664736", "MEAN_MOTION": 1.86229641, "ECCENTRICITY": 0.00022913, "INCLINATION": 55.5815, "RA_OF_ASC_NODE": 68.7208, "ARG_OF_PERICENTER": 268.7348, "MEAN_ANOMALY": 91.2612, "EPHEMERIS_TYPE": 0, "CLASSIFICATION_TYPE": "U", "NORAD_CAT_ID": 58654, "ELEMENT_SET_NO": 999, "REV_AT_EPOCH": 1330, "BSTAR": 0, "MEAN_MOTION_DOT": -4.9e-07, "MEAN_MOTION_DDOT": 0}, "tle": {"line1": "1 58654U 23207A   25343.21630399 -.00000049  00000+0  00000+0 0  9994", "line2": "2 58654  55.5815  68.7208 0002291 268.7348  91.2612  1.86229641 13309"}}, "geometry": {"type": "Point", "coordinates": [-20.420486962192744, -55.59845116196399]}}, {"type": "Feature", "properties": {"norad_id": 58655, "name": "BEIDOU-3 M26 (C48)", "group": "gnss", "lat": 36.50176779774255, "lon": 99.14204522046236, "alt_km": 21532.632079840438, "timestamp": "2025-12-09T14:52:26.405911+00:00", "meta": {"OBJECT_NAME": "BEIDOU-3 M26 (C48)", "OBJECT_ID": "2023-207B", "EPOCH": "2025-12-08T11:26:54.595392", "MEAN_MOTION": 1.8623113, "ECCENTRICITY": 0.00036549, "INCLINATION": 55.583, "RA_OF_ASC_NODE": 68.7321, "ARG_OF_PERICENTER": 253.8899, "MEAN_ANOMALY": 106.0912, "EPHEMERIS_TYPE": 0, "CLASSIFICATION_TYPE": "U", "NORAD_CAT_ID": 58655, "ELEMENT_SET_NO": 999, "REV_AT_EPOCH": 1327, "BSTAR": 0, "MEAN_MOTION_DOT": -4.7e-07, "MEAN_MOTION_DDOT": 0}, "tle": {"line1": "1 58655U 23207B   25342.47702078 -.00000047  00000+0  00000+0 0  9994", "line2": "2 58655  55.5830  68.7321 0003654 253.8899 106.0912  1.86231130 13273"}}, "geometry": {"type": "Point", "coordinates": [99.14204522046236, 36.50176779774255]}}]}